OBJECT_NAME,OBJECT_ID,EPOCH,MEAN_MOTION,ECCENTRICITY,INCLINATION,RA_OF_ASC_NODE,ARG_OF_PERICENTER,MEAN_ANOMALY,EPHEMERIS_TYPE,CLASSIFICATION_TYPE,NORAD_CAT_ID,ELEMENT_SET_NO,REV_AT_EPOCH,BSTAR,MEAN_MOTION_DOT,MEAN_MOTION_DDOT
COSMOS 2550,2021-056A,2024-07-08T03:39:43.417440,15.33823854,.0008418,67.1406,84.8865,269.5540,90.4650,0,U,48865,999,16999,.38459E-4,.1073E-4,0
2022-019U,2022-019U,2024-07-08T00:39:59.163840,15.92526191,.0011456,97.5056,299.0318,344.7541,15.3386,0,U,51842,999,13242,.10667E-2,.36221E-2,.52263E-4
CZ-2C R/B,2022-058K,2024-07-07T06:44:26.167488,15.23893612,.0078644,50.1909,142.0843,209.5246,150.1259,0,U,52794,999,11618,.32764E-3,.8397E-4,0
XRISM,2023-137A,2024-07-07T12:08:54.099744,15.01443749,.0009517,31.0019,243.2522,51.0835,309.0648,0,U,57800,999,4566,.28739E-3,.3887E-4,0
SZ-17 MODULE,2023-164C,2024-07-07T11:56:11.315616,15.66993058,.0006341,41.4775,318.4285,23.2810,336.8317,0,U,59624,999,1072,.34145E-3,.37257E-3,0
