SZ-17 MODULE            
1 59624U 23164C   24189.49735319  .00037257  00000+0  34145-3 0  9990
2 59624  41.4775 318.4285 0006341  23.2810 336.8317 15.66993058 10720
COSMOS 2550             
1 48865U 21056A   24190.15258585  .00001073  00000+0  38459-4 0  9993
2 48865  67.1406  84.8865 0008418 269.5540  90.4650 15.33823854169998
2022-019U               
1 51842U 22019U   24190.02776810  .00362210  52263-4  10667-2 0  9999
2 51842  97.5056 299.0318 0011456 344.7541  15.3386 15.92526191132420
CZ-2C R/B               
1 52794U 22058K   24189.28085842  .00008397  00000+0  32764-3 0  9996
2 52794  50.1909 142.0843 0078644 209.5246 150.1259 15.23893612116182
XRISM                   
1 57800U 23137A   24189.50618171  .00003887  00000+0  28739-3 0  9996
2 57800  31.0019 243.2522 0009517  51.0835 309.0648 15.01443749 45669
